{
  "type": "FeatureCollection",
  "features": [
    {
      "type": "Feature",
      "properties": {
        "id": "regional-bell-park",
        "name": "Bell Park",
        "category": "regional",
        "sourceName": "City of Delta — Parks GIS layer",
        "sourceUrl": "https://maps.delta.ca/arcgis/rest/services/DeltaMap/PropertyBasemap/MapServer/10",
        "sourceId": "1001484"
      },
      "geometry": {
        "type": "Polygon",
        "coordinates": [
          [
            [-123.06102033004917, 49.09170992092063],
            [-123.0610262236182, 49.0913040132186],
            [-123.0607128463669, 49.09130205822306],
            [-123.0604203626821, 49.091300227274836],
            [-123.06012787901817, 49.09129839558556],
            [-123.05983942094949, 49.09129658715545],
            [-123.05983940181686, 49.09129206424073],
            [-123.05945604697204, 49.09129257086366],
            [-123.05945744912569, 49.091753325529154],
            [-123.05945821684566, 49.092005090451536],
            [-123.05945903482674, 49.09227484898181],
            [-123.05984241134509, 49.09227582569229],
            [-123.0605946938862, 49.09228053460523],
            [-123.06059560357146, 49.09221766206729],
            [-123.06101292207534, 49.09222027133657],
            [-123.06101436067232, 49.09212110717749],
            [-123.06101735222127, 49.09191551404916],
            [-123.06102033004917, 49.09170992092063]
          ]
        ]
      }
    }
  ]
}
