{"type":"Feature","properties":{"id":"vancouver-island-focus","sourceName":"OpenStreetMap contributors","sourceUrl":"https://www.openstreetmap.org/copyright","sourceId":"R2249770"},"geometry":{"type":"Polygon","coordinates":[[[-128.435279,50.781127],[-128.433104,50.773057],[-128.407345,50.76024],[-128.406793,50.751135],[-128.414101,50.743087],[-128.392362,50.735243],[-128.392086,50.726897],[-128.378303,50.717565],[-128.367832,50.703361],[-128.369467,50.696707],[-128.380295,50.692165],[-128.375239,50.674509],[-128.352463,50.668443],[-128.34598,50.663773],[-128.332593,50.667511],[-128.311744,50.660134],[-128.302181,50.665188],[-128.29043,50.661777],[-128.288675,50.657313],[-128.292557,50.652334],[-128.301946,50.650502],[-128.310396,50.653578],[-128.330175,50.640008],[-128.329359,50.628934],[-128.304779,50.60738],[-128.277549,50.604163],[-128.26196,50.593025],[-128.241199,50.588241],[-128.2384,50.584509],[-128.239555,50.579154],[-128.249305,50.571884],[-128.221513,50.554967],[-128.217572,50.547177],[-128.221269,50.536793],[-128.206538,50.526995],[-128.18081,50.52159],[-128.164425,50.506094],[-128.144446,50.503234],[-128.124915,50.489614],[-128.110859,50.470846],[-128.087474,50.472144],[-128.069702,50.464275],[-128.062035,50.457473],[-128.060784,50.451187],[-128.047969,50.442011],[-128.036188,50.446358],[-128.023411,50.467161],[-128.033755,50.468431],[-128.050896,50.482273],[-128.049598,50.488058],[-128.039352,50.494223],[-128.028709,50.493652],[-128.016963,50.483506],[-128.015386,50.473583],[-128.019021,50.468763],[-127.991714,50.465308],[-127.981926,50.469253],[-127.96704,50.468088],[-127.960732,50.474612],[-127.952696,50.477385],[-127.938307,50.472567],[-127.936995,50.458316],[-127.942406,50.437078],[-127.932656,50.429797],[-127.932421,50.423707],[-127.95244,50.41125],[-127.953956,50.40579],[-127.960974,50.401676],[-127.962502,50.392476],[-127.973288,50.388927],[-127.973102,50.38457],[-127.965077,50.378009],[-127.965586,50.364412],[-127.975522,50.357306],[-127.997734,50.349724],[-127.978316,50.333309],[-127.978209,50.323488],[-127.966311,50.323515],[-127.950256,50.31741],[-127.919636,50.324624],[-127.899291,50.338172],[-127.879099,50.338491],[-127.875237,50.330282],[-127.867567,50.325465],[-127.867087,50.316251],[-127.858756,50.311405],[-127.842101,50.308551],[-127.834351,50.301727],[-127.83608,50.296463],[-127.842711,50.292948],[-127.859047,50.293618],[-127.866393,50.289449],[-127.850716,50.272834],[-127.800686,50.245306],[-127.773132,50.243307],[-127.765163,50.23722],[-127.767552,50.230482],[-127.777103,50.225869],[-127.80355,50.221391],[-127.803668,50.214837],[-127.799753,50.210053],[-127.801377,50.20497],[-127.821639,50.196313],[-127.824934,50.189766],[-127.83277,50.185741],[-127.838408,50.17448],[-127.847195,50.170574],[-127.857422,50.160482],[-127.898873,50.14399],[-127.913602,50.133206],[-127.922723,50.130409],[-127.918277,50.112664],[-127.889786,50.103658],[-127.883772,50.097066],[-127.865044,50.090796],[-127.832472,50.086245],[-127.813459,50.078474],[-127.79589,50.078975],[-127.731422,50.120709],[-127.715827,50.122739],[-127.704689,50.129663],[-127.683571,50.129727],[-127.683024,50.140656],[-127.674854,50.144993],[-127.656282,50.148051],[-127.648221,50.146238],[-127.642137,50.141553],[-127.627465,50.116491],[-127.615679,50.114203],[-127.608892,50.106212],[-127.591571,50.109739],[-127.589201,50.116235],[-127.57602,50.124476],[-127.5612,50.121509],[-127.525227,50.12748],[-127.515691,50.12035],[-127.487477,50.110291],[-127.484965,50.105121],[-127.486945,50.092022],[-127.449356,50.066],[-127.442541,50.046649],[-127.43353,50.041224],[-127.43041,50.034752],[-127.408357,50.035789],[-127.394175,50.026889],[-127.369001,50.027105],[-127.360156,50.021456],[-127.344457,50.018021],[-127.33875,50.024653],[-127.315974,50.037668],[-127.279981,50.051734],[-127.269848,50.052735],[-127.264974,50.057208],[-127.278939,50.070794],[-127.276796,50.076207],[-127.267506,50.082362],[-127.276604,50.094404],[-127.271835,50.100223],[-127.260959,50.102957],[-127.266212,50.111488],[-127.25702,50.122412],[-127.248585,50.122886],[-127.236979,50.118325],[-127.234653,50.114106],[-127.236964,50.104683],[-127.213801,50.091721],[-127.199756,50.090302],[-127.169493,50.094425],[-127.159375,50.099455],[-127.142948,50.098158],[-127.139035,50.0921],[-127.143448,50.085343],[-127.176002,50.074673],[-127.187393,50.065344],[-127.177377,50.055884],[-127.178426,50.049011],[-127.17474,50.042074],[-127.188858,50.027742],[-127.199106,50.022681],[-127.183253,50.012974],[-127.183152,50.005184],[-127.202742,49.994582],[-127.212064,49.993294],[-127.22477,49.981673],[-127.241559,49.973059],[-127.253224,49.972047],[-127.257687,49.965741],[-127.252895,49.958639],[-127.242428,49.960128],[-127.233541,49.95647],[-127.221097,49.926405],[-127.204552,49.920915],[-127.203832,49.913345],[-127.196061,49.902526],[-127.185526,49.898456],[-127.180313,49.8914],[-127.179207,49.879416],[-127.171161,49.870052],[-127.153981,49.858605],[-127.119589,49.852751],[-127.106271,49.861555],[-127.092708,49.857818],[-127.077502,49.86082],[-127.044053,49.850802],[-127.026548,49.852275],[-127.016333,49.848156],[-126.99676,49.850753],[-126.985378,49.859019],[-126.972138,49.858249],[-126.963231,49.853982],[-126.941817,49.858763],[-126.924019,49.871513],[-126.91045,49.867089],[-126.878775,49.867342],[-126.824364,49.879383],[-126.813614,49.886921],[-126.810392,49.896067],[-126.798205,49.902992],[-126.789255,49.903087],[-126.754641,49.873154],[-126.735695,49.866745],[-126.715636,49.869643],[-126.706238,49.862172],[-126.683714,49.862454],[-126.657892,49.85469],[-126.654608,49.847857],[-126.655363,49.816283],[-126.645394,49.796171],[-126.642118,49.782843],[-126.644554,49.77619],[-126.634831,49.770638],[-126.63134,49.765036],[-126.626437,49.737424],[-126.615754,49.720477],[-126.589018,49.693553],[-126.566856,49.695075],[-126.550427,49.69213],[-126.545306,49.697366],[-126.5271,49.70445],[-126.500637,49.707231],[-126.493817,49.7003],[-126.50206,49.685508],[-126.479564,49.678749],[-126.471503,49.668671],[-126.45275,49.657329],[-126.450607,49.652819],[-126.439651,49.650241],[-126.416236,49.660427],[-126.388959,49.659959],[-126.377858,49.652789],[-126.35981,49.648894],[-126.35314,49.644497],[-126.355047,49.636507],[-126.371898,49.631757],[-126.398674,49.640275],[-126.437404,49.642042],[-126.450245,49.637759],[-126.457704,49.640676],[-126.460046,49.645938],[-126.479049,49.645635],[-126.483615,49.638611],[-126.483418,49.631761],[-126.494259,49.6213],[-126.496936,49.612757],[-126.508099,49.606693],[-126.513143,49.599887],[-126.527541,49.59232],[-126.557496,49.587875],[-126.572424,49.578035],[-126.567959,49.568328],[-126.564746,49.543065],[-126.573048,49.534275],[-126.555692,49.521052],[-126.554049,49.516426],[-126.560359,49.509817],[-126.563719,49.484717],[-126.573333,49.475717],[-126.572165,49.470108],[-126.576711,49.464301],[-126.558594,49.447047],[-126.567264,49.43504],[-126.568113,49.427009],[-126.576343,49.422169],[-126.579559,49.414487],[-126.547125,49.391816],[-126.54688,49.381505],[-126.52142,49.376566],[-126.496615,49.379802],[-126.473174,49.376745],[-126.471274,49.38356],[-126.461319,49.391696],[-126.46436,49.398175],[-126.459807,49.406773],[-126.466963,49.411405],[-126.469341,49.41764],[-126.484512,49.421908],[-126.48482,49.432311],[-126.476405,49.441819],[-126.459872,49.443602],[-126.458526,49.449271],[-126.449551,49.455371],[-126.445436,49.467752],[-126.430275,49.47281],[-126.420547,49.469797],[-126.418584,49.462147],[-126.43541,49.451078],[-126.434697,49.447703],[-126.422443,49.441376],[-126.419491,49.435188],[-126.407023,49.427105],[-126.406024,49.419033],[-126.409784,49.412347],[-126.358017,49.401282],[-126.339589,49.388262],[-126.333743,49.378203],[-126.308749,49.369445],[-126.300823,49.360611],[-126.291512,49.357252],[-126.288181,49.351524],[-126.268823,49.35158],[-126.26069,49.345513],[-126.252796,49.350784],[-126.250488,49.360895],[-126.254767,49.366642],[-126.25903,49.396668],[-126.246559,49.409626],[-126.237874,49.410497],[-126.226981,49.402771],[-126.192028,49.396431],[-126.148074,49.399353],[-126.146007,49.406577],[-126.136852,49.415472],[-126.11621,49.427205],[-126.07731,49.432052],[-126.069578,49.425688],[-126.070733,49.419664],[-126.067014,49.409854],[-126.07066,49.404805],[-126.083815,49.399354],[-126.085236,49.394716],[-126.07419,49.390012],[-126.0628,49.371603],[-126.064449,49.350819],[-126.060811,49.339593],[-126.035361,49.323286],[-126.015227,49.319203],[-126.009312,49.313868],[-126.011174,49.30867],[-126.019553,49.304629],[-126.022699,49.289609],[-126.034876,49.284503],[-126.028527,49.274907],[-126.026356,49.261695],[-126.01411,49.251721],[-126.01462,49.242077],[-125.997889,49.238165],[-125.972309,49.22547],[-125.950126,49.239718],[-125.934761,49.243693],[-125.933226,49.253198],[-125.911874,49.266282],[-125.908958,49.273389],[-125.898834,49.277152],[-125.874065,49.275522],[-125.865063,49.267605],[-125.865122,49.262203],[-125.87025,49.256365],[-125.854946,49.253494],[-125.830508,49.260729],[-125.834698,49.268187],[-125.834361,49.285643],[-125.825304,49.294398],[-125.81365,49.295753],[-125.806378,49.289471],[-125.811486,49.263004],[-125.818921,49.258346],[-125.81422,49.244816],[-125.798933,49.238134],[-125.778292,49.238593],[-125.760422,49.243395],[-125.751617,49.236642],[-125.756616,49.223258],[-125.753105,49.214367],[-125.755959,49.208235],[-125.75376,49.183062],[-125.761447,49.177642],[-125.762204,49.172549],[-125.77561,49.156256],[-125.79485,49.146622],[-125.7926,49.139338],[-125.779424,49.13034],[-125.760628,49.129646],[-125.758191,49.138643],[-125.752723,49.142764],[-125.742947,49.145197],[-125.722595,49.143318],[-125.711178,49.161362],[-125.691186,49.176091],[-125.679375,49.17531],[-125.66966,49.16439],[-125.671797,49.159037],[-125.682366,49.154855],[-125.682488,49.144317],[-125.724411,49.124463],[-125.730726,49.113395],[-125.758371,49.110523],[-125.770179,49.104385],[-125.80677,49.121533],[-125.877257,49.125808],[-125.884081,49.13143],[-125.887965,49.151604],[-125.900476,49.156153],[-125.913677,49.155188],[-125.918056,49.147812],[-125.91763,49.138562],[-125.90874,49.130851],[-125.908845,49.124149],[-125.900193,49.120142],[-125.89593,49.110833],[-125.887207,49.105184],[-125.892177,49.093094],[-125.861384,49.075702],[-125.832016,49.068541],[-125.822343,49.061358],[-125.806743,49.066246],[-125.787318,49.061584],[-125.774504,49.069351],[-125.744799,49.063191],[-125.70613,49.041259],[-125.685406,49.024625],[-125.678961,49.016247],[-125.68335,49.008301],[-125.67433,49.00149],[-125.670548,48.994212],[-125.64824,49.000507],[-125.635337,48.998188],[-125.61748,48.985601],[-125.616734,48.981642],[-125.621313,48.97479],[-125.610894,48.969175],[-125.610405,48.96201],[-125.606104,48.957331],[-125.594083,48.954422],[-125.586601,48.946247],[-125.578004,48.943973],[-125.570658,48.936881],[-125.557159,48.934433],[-125.546163,48.925801],[-125.542852,48.919348],[-125.519675,48.922855],[-125.480486,48.919614],[-125.46757,48.925609],[-125.458956,48.938491],[-125.44514,48.941713],[-125.4414,48.950254],[-125.394392,48.974987],[-125.386356,48.986504],[-125.367121,48.997013],[-125.365279,49.002544],[-125.359506,49.006292],[-125.355221,49.019391],[-125.359115,49.028766],[-125.346523,49.036324],[-125.33836,49.03489],[-125.331908,49.029257],[-125.319595,49.03139],[-125.311078,49.027774],[-125.310239,49.019848],[-125.32543,49.013265],[-125.326389,49.00907],[-125.320849,49.002394],[-125.302451,48.996353],[-125.29529,48.987613],[-125.298596,48.979229],[-125.32548,48.968414],[-125.31013,48.96426],[-125.299843,48.966314],[-125.280632,48.963785],[-125.268592,48.956405],[-125.255361,48.95438],[-125.251719,48.947583],[-125.24258,48.942601],[-125.220143,48.949897],[-125.211301,48.957622],[-125.200455,48.961463],[-125.191591,48.973812],[-125.182055,48.977852],[-125.177537,48.983551],[-125.160667,48.98391],[-125.157727,48.991517],[-125.151262,48.995509],[-125.138675,48.994458],[-125.12925,48.986245],[-125.128897,48.978558],[-125.110594,48.971779],[-125.095014,48.971302],[-125.083435,48.975119],[-125.056164,48.990977],[-125.031139,48.98443],[-125.022956,48.972109],[-125.035086,48.955917],[-125.022756,48.950726],[-125.020578,48.945253],[-125.034932,48.933256],[-125.012809,48.913408],[-125.015042,48.902104],[-125.035718,48.885854],[-125.069638,48.886946],[-125.090242,48.878969],[-125.098888,48.869292],[-125.108941,48.864605],[-125.113798,48.854095],[-125.130275,48.84903],[-125.155357,48.828068],[-125.181031,48.815147],[-125.192145,48.80313],[-125.207109,48.799393],[-125.217707,48.790503],[-125.212534,48.780469],[-125.199705,48.778721],[-125.176026,48.783277],[-125.161615,48.769974],[-125.139713,48.769446],[-125.134655,48.762853],[-125.131657,48.746971],[-125.121592,48.73921],[-125.118798,48.730573],[-125.100985,48.719769],[-125.060805,48.720132],[-125.01904,48.711765],[-125.00664,48.705101],[-124.952686,48.698246],[-124.921481,48.686023],[-124.913112,48.679808],[-124.88536,48.673801],[-124.872721,48.674177],[-124.829912,48.657605],[-124.816859,48.657875],[-124.796695,48.638868],[-124.785242,48.636088],[-124.768807,48.62534],[-124.76331,48.615624],[-124.752676,48.609572],[-124.73787,48.608287],[-124.718028,48.592046],[-124.689323,48.58815],[-124.645069,48.571584],[-124.617719,48.568031],[-124.604387,48.562628],[-124.55122,48.55506],[-124.497612,48.541143],[-124.46761,48.558549],[-124.413906,48.571971],[-124.406636,48.566816],[-124.408802,48.560172],[-124.426091,48.557345],[-124.432258,48.551411],[-124.443752,48.548313],[-124.459843,48.536436],[-124.460632,48.5307],[-124.434347,48.521657],[-124.418649,48.521387],[-124.366515,48.507327],[-124.311009,48.502291],[-124.297991,48.493223],[-124.293832,48.483604],[-124.272916,48.4786],[-124.251472,48.469116],[-124.207115,48.455707],[-124.120521,48.438533],[-124.107903,48.430861],[-124.093008,48.431895],[-124.070322,48.42129],[-124.035629,48.418518],[-123.997315,48.406264],[-123.986883,48.393648],[-123.975617,48.390909],[-123.951357,48.392177],[-123.942564,48.384072],[-123.922154,48.375108],[-123.896036,48.380217],[-123.861591,48.377639],[-123.839364,48.369605],[-123.822159,48.355342],[-123.763446,48.367185],[-123.755033,48.357919],[-123.723729,48.350318],[-123.715828,48.337488],[-123.689033,48.333969],[-123.672414,48.320706],[-123.654638,48.312244],[-123.636442,48.315542],[-123.625108,48.330114],[-123.617848,48.333166],[-123.603957,48.329154],[-123.602552,48.325022],[-123.605856,48.319755],[-123.602794,48.31362],[-123.587089,48.30833],[-123.575242,48.311894],[-123.560126,48.307365],[-123.539319,48.318562],[-123.537449,48.325069],[-123.540191,48.33387],[-123.525145,48.341314],[-123.538071,48.347911],[-123.539205,48.354674],[-123.526605,48.370347],[-123.513783,48.380527],[-123.496983,48.385411],[-123.476246,48.385078],[-123.476052,48.390413],[-123.481663,48.394123],[-123.482867,48.399721],[-123.47227,48.413824],[-123.454688,48.428082],[-123.428876,48.425362],[-123.411085,48.415373],[-123.399118,48.416121],[-123.349772,48.401284],[-123.339233,48.406933],[-123.321004,48.404052],[-123.313442,48.408292],[-123.29177,48.410481],[-123.297621,48.421171],[-123.2977,48.432453],[-123.289385,48.437337],[-123.285949,48.446697],[-123.262606,48.452591],[-123.274322,48.465163],[-123.297125,48.476838],[-123.298018,48.489304],[-123.304966,48.497443],[-123.328589,48.497733],[-123.362255,48.517233],[-123.363831,48.531858],[-123.358784,48.542605],[-123.362388,48.549397],[-123.35962,48.55829],[-123.364258,48.563775],[-123.364103,48.573155],[-123.369626,48.5894],[-123.3676,48.597002],[-123.390344,48.602803],[-123.405978,48.627689],[-123.391205,48.646478],[-123.392803,48.655996],[-123.390154,48.662303],[-123.395592,48.669271],[-123.3939,48.676138],[-123.401119,48.689997],[-123.410923,48.690236],[-123.438829,48.700619],[-123.48529,48.693601],[-123.48527,48.683033],[-123.490618,48.67622],[-123.47989,48.667129],[-123.460191,48.66117],[-123.456246,48.656212],[-123.458877,48.650889],[-123.476019,48.641792],[-123.482266,48.628829],[-123.475672,48.618701],[-123.483485,48.606841],[-123.482909,48.597194],[-123.470344,48.590243],[-123.468779,48.584894],[-123.475553,48.578965],[-123.489221,48.578806],[-123.499795,48.568119],[-123.51315,48.571232],[-123.519344,48.583826],[-123.520745,48.597353],[-123.516365,48.615297],[-123.526948,48.632699],[-123.543729,48.646828],[-123.531717,48.659339],[-123.529089,48.66964],[-123.532617,48.694373],[-123.549985,48.704176],[-123.55329,48.716883],[-123.577228,48.732356],[-123.576176,48.73781],[-123.56765,48.742119],[-123.567074,48.748974],[-123.575943,48.768541],[-123.566037,48.77758],[-123.555681,48.781187],[-123.561866,48.788284],[-123.560607,48.799933],[-123.589191,48.813112],[-123.588837,48.817433],[-123.581807,48.824429],[-123.590167,48.84886],[-123.610662,48.854832],[-123.619267,48.862664],[-123.634791,48.865173],[-123.641606,48.87411],[-123.643115,48.884256],[-123.659944,48.887811],[-123.670394,48.899499],[-123.691281,48.908593],[-123.703953,48.930891],[-123.716783,48.930677],[-123.734136,48.937947],[-123.754226,48.959326],[-123.773566,48.967226],[-123.777182,48.972963],[-123.788295,48.972729],[-123.799845,48.980009],[-123.80024,48.986729],[-123.792,48.990726],[-123.778813,48.988155],[-123.772063,48.978705],[-123.755309,48.985906],[-123.758695,49.005066],[-123.770161,49.016682],[-123.770748,49.020914],[-123.744415,49.040708],[-123.778205,49.071377],[-123.796684,49.094342],[-123.802989,49.112358],[-123.802213,49.120377],[-123.816983,49.136985],[-123.870132,49.143686],[-123.884307,49.153361],[-123.894337,49.168231],[-123.89691,49.166143],[-123.891567,49.149889],[-123.893076,49.146025],[-123.909539,49.139084],[-123.921037,49.141318],[-123.925432,49.150176],[-123.918989,49.157765],[-123.92094,49.162281],[-123.937006,49.17459],[-123.945853,49.187401],[-123.946427,49.193974],[-123.957719,49.19611],[-123.962542,49.20127],[-123.957736,49.208302],[-123.938016,49.212247],[-123.946587,49.229778],[-123.956137,49.231356],[-123.963812,49.238052],[-124.006815,49.240451],[-124.033246,49.250375],[-124.053091,49.25005],[-124.082423,49.258779],[-124.093108,49.255805],[-124.107685,49.256844],[-124.112644,49.262822],[-124.106783,49.271055],[-124.127306,49.283373],[-124.133993,49.291764],[-124.16071,49.295021],[-124.184822,49.314009],[-124.199531,49.31102],[-124.214431,49.316601],[-124.220216,49.311171],[-124.228167,49.309365],[-124.240525,49.314737],[-124.252776,49.31331],[-124.259123,49.316831],[-124.261747,49.326037],[-124.28347,49.333033],[-124.299165,49.333043],[-124.313372,49.327057],[-124.321157,49.328313],[-124.331917,49.337853],[-124.348425,49.344708],[-124.353081,49.352757],[-124.363848,49.355223],[-124.416512,49.36188],[-124.456398,49.35665],[-124.485223,49.37056],[-124.504753,49.367782],[-124.536724,49.37802],[-124.572442,49.382018],[-124.59826,49.393437],[-124.60806,49.402281],[-124.62802,49.406939],[-124.639447,49.423155],[-124.654511,49.42828],[-124.683858,49.449824],[-124.715562,49.459774],[-124.723783,49.468911],[-124.736914,49.467681],[-124.742188,49.463308],[-124.750694,49.462023],[-124.786463,49.472386],[-124.794548,49.481746],[-124.788237,49.491371],[-124.790726,49.498863],[-124.806734,49.507258],[-124.816648,49.504828],[-124.82448,49.506796],[-124.827894,49.510792],[-124.828874,49.522562],[-124.842975,49.524717],[-124.857357,49.537779],[-124.881827,49.581533],[-124.878581,49.594094],[-124.886076,49.597667],[-124.903235,49.617268],[-124.906735,49.62606],[-124.918465,49.634371],[-124.921102,49.64401],[-124.930395,49.649428],[-124.943751,49.649515],[-124.965583,49.663864],[-124.963639,49.669369],[-124.953917,49.672321],[-124.931888,49.667772],[-124.926565,49.658422],[-124.904404,49.660675],[-124.861875,49.69405],[-124.85733,49.701141],[-124.860224,49.708264],[-124.875078,49.710758],[-124.882238,49.717619],[-124.882984,49.722907],[-124.891566,49.729613],[-124.912171,49.741195],[-124.927338,49.742768],[-124.948703,49.760487],[-124.962712,49.76371],[-124.971748,49.775644],[-125.005892,49.795503],[-125.031699,49.821027],[-125.052279,49.830254],[-125.06204,49.840529],[-125.106657,49.85977],[-125.11197,49.86897],[-125.112397,49.881626],[-125.120237,49.889322],[-125.157857,49.899933],[-125.179838,49.915001],[-125.182698,49.94276],[-125.200915,49.95451],[-125.206266,49.968494],[-125.217149,49.975668],[-125.235073,50.024628],[-125.242024,50.032971],[-125.241897,50.039397],[-125.260274,50.054163],[-125.269437,50.0703],[-125.28316,50.078004],[-125.296748,50.078836],[-125.304585,50.089555],[-125.315472,50.093967],[-125.321796,50.102626],[-125.322833,50.114321],[-125.35043,50.117803],[-125.358027,50.122126],[-125.356718,50.129981],[-125.361073,50.153334],[-125.36807,50.16087],[-125.367702,50.170886],[-125.378863,50.180329],[-125.380725,50.187359],[-125.377601,50.194844],[-125.381498,50.199584],[-125.38079,50.20667],[-125.397659,50.237741],[-125.394681,50.244934],[-125.395997,50.252382],[-125.409456,50.270973],[-125.431475,50.281153],[-125.430654,50.287158],[-125.436716,50.298339],[-125.43272,50.304818],[-125.437587,50.309434],[-125.440973,50.323674],[-125.436444,50.330453],[-125.437937,50.332327],[-125.446517,50.335605],[-125.477888,50.33046],[-125.485629,50.337519],[-125.502445,50.342853],[-125.52393,50.34302],[-125.537988,50.352691],[-125.558788,50.358135],[-125.579313,50.369734],[-125.613957,50.369004],[-125.651582,50.362243],[-125.671134,50.367245],[-125.684496,50.366526],[-125.722649,50.358585],[-125.742534,50.363448],[-125.772907,50.364702],[-125.819982,50.385105],[-125.858322,50.381864],[-125.905555,50.390137],[-125.927301,50.388466],[-125.950414,50.393793],[-125.993969,50.418389],[-126.084657,50.450637],[-126.116646,50.454968],[-126.125919,50.45944],[-126.145591,50.460883],[-126.16078,50.45796],[-126.175422,50.464989],[-126.202769,50.464746],[-126.221017,50.47061],[-126.231801,50.469498],[-126.253452,50.474925],[-126.280496,50.470847],[-126.315228,50.481593],[-126.330906,50.480463],[-126.360393,50.485013],[-126.399454,50.485201],[-126.417,50.479348],[-126.4301,50.478599],[-126.461614,50.484181],[-126.474382,50.482173],[-126.535676,50.490347],[-126.568475,50.490777],[-126.576994,50.484717],[-126.586326,50.483328],[-126.606925,50.488586],[-126.615352,50.497644],[-126.63956,50.500257],[-126.675795,50.515758],[-126.769836,50.537537],[-126.781478,50.545187],[-126.805749,50.544862],[-126.821507,50.551838],[-126.844578,50.549082],[-126.870689,50.557394],[-126.904499,50.562607],[-126.917863,50.56009],[-126.965669,50.562354],[-126.971925,50.566298],[-126.977511,50.581154],[-126.997079,50.587171],[-127.024034,50.584878],[-127.051782,50.590412],[-127.070232,50.588985],[-127.081603,50.595028],[-127.081643,50.599217],[-127.076299,50.604029],[-127.078573,50.606021],[-127.128758,50.614807],[-127.145547,50.610317],[-127.179027,50.616734],[-127.193249,50.615818],[-127.2116,50.628957],[-127.274097,50.652848],[-127.280719,50.660124],[-127.3049,50.662075],[-127.327999,50.672587],[-127.340188,50.674573],[-127.373633,50.690564],[-127.382368,50.70123],[-127.416931,50.699441],[-127.422284,50.703964],[-127.42358,50.713872],[-127.408439,50.728191],[-127.404578,50.738936],[-127.406639,50.748785],[-127.420359,50.751565],[-127.428388,50.748084],[-127.451201,50.746399],[-127.449833,50.737657],[-127.452924,50.733884],[-127.467165,50.725041],[-127.481487,50.723536],[-127.488171,50.727451],[-127.492885,50.736791],[-127.490802,50.755444],[-127.482657,50.764146],[-127.486813,50.768395],[-127.501989,50.769418],[-127.512052,50.775146],[-127.550004,50.784804],[-127.594276,50.792758],[-127.663782,50.815407],[-127.69783,50.821133],[-127.710955,50.827009],[-127.745946,50.83309],[-127.757955,50.83839],[-127.801411,50.843965],[-127.862746,50.857094],[-127.872542,50.867459],[-127.90558,50.87635],[-127.919385,50.874006],[-127.931277,50.876715],[-127.949965,50.875584],[-127.964515,50.872279],[-127.983927,50.862553],[-128.001286,50.860967],[-128.014353,50.868313],[-128.040726,50.866527],[-128.046144,50.869445],[-128.048092,50.875797],[-128.054892,50.878273],[-128.07138,50.871263],[-128.104785,50.867711],[-128.109909,50.860681],[-128.122724,50.854951],[-128.122921,50.846257],[-128.131223,50.84091],[-128.14232,50.840982],[-128.150324,50.845812],[-128.165755,50.842823],[-128.178007,50.845216],[-128.186967,50.836412],[-128.21285,50.835335],[-128.215159,50.829146],[-128.228194,50.817313],[-128.248154,50.806544],[-128.274955,50.808179],[-128.307225,50.797947],[-128.331908,50.808279],[-128.362477,50.80378],[-128.35521,50.793516],[-128.363459,50.78581],[-128.381336,50.787644],[-128.392522,50.781866],[-128.40846,50.779109],[-128.43084,50.788133],[-128.435279,50.781127]],[[-123.59968,48.754571],[-123.582512,48.750385],[-123.579314,48.744571],[-123.580665,48.740492],[-123.593545,48.737155],[-123.628218,48.744706],[-123.633705,48.750873],[-123.629847,48.758003],[-123.622852,48.761002],[-123.59968,48.754571]],[[-123.680411,48.377348],[-123.678987,48.384839],[-123.665634,48.387744],[-123.643594,48.383228],[-123.638441,48.377065],[-123.645301,48.368964],[-123.66671,48.366742],[-123.677897,48.370216],[-123.680411,48.377348]],[[-124.161655,49.268852],[-124.154897,49.263957],[-124.158566,49.256561],[-124.169642,49.255252],[-124.177813,49.260049],[-124.175105,49.267585],[-124.161655,49.268852]],[[-125.002319,48.949025],[-125.012775,48.953169],[-125.010895,48.961093],[-125.000516,48.963476],[-124.992281,48.959296],[-124.992992,48.952423],[-125.002319,48.949025]],[[-126.003881,49.318065],[-125.987874,49.328706],[-125.985685,49.340272],[-125.971517,49.345136],[-125.957084,49.358856],[-125.946877,49.360775],[-125.938908,49.356199],[-125.939944,49.348608],[-125.945697,49.3404],[-125.955405,49.334146],[-125.950763,49.319246],[-125.96185,49.311725],[-125.965204,49.305496],[-125.97809,49.299986],[-125.986328,49.300152],[-126.005967,49.309507],[-126.007229,49.313643],[-126.003881,49.318065]],[[-126.176769,49.657476],[-126.182479,49.659801],[-126.185018,49.665311],[-126.173164,49.673657],[-126.148096,49.675922],[-126.129346,49.67213],[-126.11161,49.677342],[-126.104519,49.674433],[-126.100356,49.667435],[-126.107136,49.660622],[-126.129361,49.662308],[-126.163098,49.652746],[-126.176769,49.657476]],[[-127.100067,50.10337],[-127.110519,50.105102],[-127.113212,50.113071],[-127.103209,50.118432],[-127.092957,50.116197],[-127.090007,50.10884],[-127.100067,50.10337]],[[-127.172262,50.004104],[-127.180793,50.00843],[-127.179593,50.015371],[-127.169678,50.018647],[-127.159152,50.01398],[-127.161279,50.006051],[-127.172262,50.004104]],[[-127.507311,50.575676],[-127.517256,50.577978],[-127.520173,50.583109],[-127.507896,50.59305],[-127.493616,50.592983],[-127.48488,50.586023],[-127.488325,50.5785],[-127.507311,50.575676]],[[-127.529457,50.442169],[-127.527839,50.447537],[-127.520762,50.45063],[-127.505219,50.445537],[-127.486252,50.421118],[-127.48636,50.414622],[-127.494833,50.410532],[-127.504882,50.412739],[-127.529457,50.442169]],[[-127.597404,50.592209],[-127.584293,50.589883],[-127.582838,50.579866],[-127.593934,50.575836],[-127.606714,50.580022],[-127.608189,50.5879],[-127.597404,50.592209]],[[-127.770142,50.484369],[-127.778219,50.490492],[-127.772418,50.497582],[-127.736107,50.511005],[-127.705429,50.515284],[-127.665123,50.530406],[-127.641476,50.535137],[-127.614835,50.532981],[-127.611006,50.529305],[-127.609978,50.518023],[-127.581655,50.49859],[-127.58593,50.49252],[-127.597002,50.489994],[-127.611601,50.490512],[-127.627141,50.496159],[-127.630733,50.489371],[-127.637893,50.486355],[-127.685318,50.492204],[-127.731155,50.481635],[-127.744897,50.484059],[-127.758253,50.480371],[-127.770142,50.484369]],[[-127.704168,50.603346],[-127.695027,50.606414],[-127.662353,50.604658],[-127.653232,50.598511],[-127.624736,50.594273],[-127.619819,50.588025],[-127.625572,50.582072],[-127.638397,50.580716],[-127.670049,50.585624],[-127.688141,50.58449],[-127.742769,50.589624],[-127.752412,50.596168],[-127.744531,50.603601],[-127.704168,50.603346]],[[-127.920561,50.467498],[-127.932242,50.47109],[-127.932245,50.478106],[-127.923042,50.481923],[-127.914848,50.480303],[-127.910606,50.474995],[-127.901107,50.478635],[-127.889753,50.478493],[-127.872043,50.488362],[-127.870467,50.498208],[-127.85813,50.502114],[-127.848147,50.499413],[-127.845739,50.495445],[-127.847193,50.489832],[-127.835546,50.484319],[-127.799866,50.482293],[-127.791513,50.476153],[-127.79698,50.466441],[-127.811507,50.461109],[-127.842086,50.472198],[-127.856682,50.468991],[-127.865626,50.461458],[-127.891131,50.458648],[-127.908697,50.464757],[-127.913066,50.470155],[-127.920561,50.467498]]]}}
